      2.10          N: GNSS NAV DATA                        RINEX VERSION / TYPE
fic2rin                                 08/14/2021 00:17:24 PGM / RUN BY / DATE
                                                            END OF HEADER
10 21  8 13  6  0  0.0-1.814523711801e-04-7.730704965070e-12 0.000000000000e+00
    9.300000000000e+01-1.837500000000e+01 4.562690054355e-09 1.803581005428e+00
   -9.443610906601e-07 6.808642065153e-03 4.211440682411e-06 5.153672935486e+03
    4.536000000000e+05-1.490116119385e-07 2.501683347736e+00 7.823109626770e-08
    9.701988671685e-01 3.030625000000e+02-2.580034473683e+00-8.323203837706e-09
    2.785830326729e-11 1.000000000000e+00 2.170000000000e+03 0.000000000000e+00
    2.400000000000e+00 0.000000000000e+00 2.328306436539e-09 9.300000000000e+01
    4.464000000000e+05 4.000000000000e+00
 9 21  8 13  6  0  0.0-3.586472012103e-04-1.023181539495e-12 0.000000000000e+00
    1.000000000000e+02-5.243750000000e+01 4.584119518407e-09 1.641792071801e-01
   -2.946704626083e-06 2.017857972533e-03 1.033581793308e-05 5.153733623505e+03
    4.536000000000e+05 1.303851604462e-08-2.749589367914e+00 2.980232238770e-08
    9.539048197703e-01 1.743125000000e+02 1.810963599572e+00-8.129981503505e-09
   -1.964367538078e-10 1.000000000000e+00 2.170000000000e+03 0.000000000000e+00
    2.400000000000e+00 0.000000000000e+00 1.396983861923e-09 1.000000000000e+02
    4.464000000000e+05 4.000000000000e+00
29 21  8 13  6  0  0.0-3.954130224884e-04-5.911715561524e-12 0.000000000000e+00
    2.000000000000e+00-4.131250000000e+01 3.914448766789e-09-2.234229582116e-01
   -2.203509211540e-06 1.985212787986e-03 9.922310709953e-06 5.153596374512e+03
    4.536000000000e+05-2.235174179077e-08 4.829130279060e-01-8.940696716309e-08
    9.836946960668e-01 2.011562500000e+02 2.283524735343e+00-7.794967548830e-09
   -4.018024509706e-10 1.000000000000e+00 2.170000000000e+03 0.000000000000e+00
    2.400000000000e+00 0.000000000000e+00-1.024454832077e-08 2.000000000000e+00
    4.464000000000e+05 4.000000000000e+00
19 21  8 13  6  0  0.0 3.895070403814e-05 5.002220859751e-12 0.000000000000e+00
    1.800000000000e+01-3.975000000000e+01 4.006595462212e-09 2.155034931752e+00
   -2.017244696617e-06 9.238370694220e-03 1.012720167637e-05 5.153649551392e+03
    4.536000000000e+05 1.732259988785e-07 5.153481687655e-01-2.607703208923e-08
    9.803746181151e-01 1.898437500000e+02 1.915789570931e+00-7.736393680421e-09
   -5.232360805973e-10 1.000000000000e+00 2.170000000000e+03 0.000000000000e+00
    2.400000000000e+00 0.000000000000e+00-1.536682248116e-08 1.800000000000e+01
    4.464000000000e+05 4.000000000000e+00
26 21  8 13  6  0  0.0 1.220293343067e-04 4.433786671143e-12 0.000000000000e+00
    1.400000000000e+01 1.525000000000e+01 5.533801933634e-09 1.571236120931e+00
    9.890645742416e-07 5.995361483656e-03 4.092231392860e-06 5.153604707718e+03
    4.536000000000e+05 6.705522537231e-08-6.836983441060e-01 1.993030309677e-07
    9.407859321960e-01 2.894687500000e+02 2.951042427219e-01-8.801080886060e-09
   -1.060758470562e-10 1.000000000000e+00 2.170000000000e+03 0.000000000000e+00
    2.400000000000e+00 0.000000000000e+00 6.984919309616e-09 1.400000000000e+01
    4.464000000000e+05 4.000000000000e+00
15 21  8 13  6  0  0.0-1.287441700697e-04 2.728484105319e-12 0.000000000000e+00
    8.900000000000e+01-6.684375000000e+01 5.259861951506e-09-1.164995796968e+00
   -3.190711140633e-06 1.348382758442e-02 8.802860975266e-06 5.153660150528e+03
    4.536000000000e+05 2.663582563400e-07-2.850668656855e+00 2.253800630569e-07
    9.296497535866e-01 1.880000000000e+02 1.010125089250e+00-8.509640174956e-09
   -2.446530479243e-10 1.000000000000e+00 2.170000000000e+03 0.000000000000e+00
    2.400000000000e+00 0.000000000000e+00-1.071020960808e-08 8.900000000000e+01
    4.464000000000e+05 4.000000000000e+00
14 21  8 13  6  0  0.0 2.498691901565e-05-8.640199666843e-12 0.000000000000e+00
    1.270000000000e+02 5.812500000000e+00 5.198787978958e-09 2.428156846616e+00
    3.706663846970e-07 1.012449502014e-03 4.153698682785e-06 5.153642829895e+03
    4.536000000000e+05-5.774199962616e-08-5.940980730151e-01 5.215406417847e-08
    9.560376329077e-01 2.973750000000e+02 3.053763480364e+00-8.580357406327e-09
   -9.178953768839e-11 1.000000000000e+00 2.170000000000e+03 0.000000000000e+00
    2.400000000000e+00 0.000000000000e+00-7.916241884232e-09 6.390000000000e+02
    4.464000000000e+05 4.000000000000e+00
31 21  8 13  6  0  0.0-1.339907757938e-04-2.046363078989e-12 0.000000000000e+00
    4.600000000000e+01 5.996875000000e+01 4.694838416008e-09 2.688863536039e+00
    3.185123205185e-06 1.009154797066e-02 9.590759873390e-06 5.153592908859e+03
    4.536000000000e+05-2.086162567139e-07-1.659944405519e+00-1.024454832077e-07
    9.554083323634e-01 1.929062500000e+02 2.784901688277e-01-7.994975879979e-09
    3.975165581602e-10 1.000000000000e+00 2.170000000000e+03 0.000000000000e+00
    2.400000000000e+00 0.000000000000e+00-1.303851604462e-08 4.600000000000e+01
    4.464000000000e+05 4.000000000000e+00
25 21  8 13  6  0  0.0 1.902603544295e-04 6.480149750132e-12 0.000000000000e+00
    3.500000000000e+01 1.893750000000e+01 4.970207029073e-09 2.241411317607e+00
    7.785856723785e-07 9.833919350058e-03 4.429370164871e-06 5.153582773209e+03
    4.536000000000e+05-1.043081283569e-07-6.401919021281e-01-1.695007085800e-07
    9.599194904198e-01 2.921250000000e+02 9.689901457347e-01-8.309989001540e-09
   -4.500187450871e-11 1.000000000000e+00 2.170000000000e+03 0.000000000000e+00
    2.400000000000e+00 0.000000000000e+00 5.587935447693e-09 3.500000000000e+01
    4.464000000000e+05 4.000000000000e+00
16 21  8 13  6  0  0.0-3.728680312634e-04-6.252776074689e-12 0.000000000000e+00
    9.900000000000e+01 1.625000000000e+00 4.775198906202e-09 6.192509744487e-01
    3.203749656677e-07 1.218283199705e-02 4.487112164497e-06 5.153737571716e+03
    4.536000000000e+05 7.450580596924e-09-5.470379631041e-01 1.080334186554e-07
    9.726513322950e-01 2.975625000000e+02 6.790725444744e-01-8.509283017222e-09
   -3.039412318009e-10 1.000000000000e+00 2.170000000000e+03 0.000000000000e+00
    2.400000000000e+00 0.000000000000e+00-1.024454832077e-08 9.900000000000e+01
    4.464000000000e+05 4.000000000000e+00
27 21  8 13  6  0  0.0-1.775254495442e-04-5.684341886081e-12 0.000000000000e+00
    9.200000000000e+01-3.384375000000e+01 4.196960534538e-09-3.194188920961e-01
   -1.827254891396e-06 9.454748011194e-03 9.212642908096e-06 5.153693811417e+03
    4.536000000000e+05-1.117587089539e-08 4.091043152597e-01 1.173466444016e-07
    9.755368065437e-01 2.079375000000e+02 6.368464410848e-01-8.089622679541e-09
   -4.543046378974e-10 1.000000000000e+00 2.170000000000e+03 0.000000000000e+00
    2.400000000000e+00 0.000000000000e+00 1.862645149231e-09 9.200000000000e+01
    4.464000000000e+05 4.000000000000e+00
30 21  8 13  6  0  0.0-4.616342484951e-04-4.092726157978e-12 0.000000000000e+00
    8.900000000000e+01 7.750000000000e+01 5.147000107500e-09 3.035370392755e+00
    4.049390554428e-06 5.356625420973e-03 1.000240445137e-05 5.153667865753e+03
    4.536000000000e+05-1.862645149231e-08-1.661331730232e+00-3.911554813385e-08
    9.363186616820e-01 1.769375000000e+02-2.734137633636e+00-8.286773748818e-09
    4.278749655669e-10 1.000000000000e+00 2.170000000000e+03 0.000000000000e+00
    2.400000000000e+00 0.000000000000e+00 3.725290298462e-09 8.900000000000e+01
    4.464000000000e+05 4.000000000000e+00
22 21  8 13  6  0  0.0-5.395538173616e-04 9.436007530894e-12 0.000000000000e+00
    1.010000000000e+02-1.243750000000e+01 5.337008022092e-09-1.353378420546e+00
   -5.401670932770e-07 6.820384296589e-03 3.868713974953e-06 5.153759078979e+03
    4.536000000000e+05-8.009374141693e-08 2.402329706721e+00 2.980232238770e-08
    9.359587106886e-01 2.933125000000e+02-9.081366201297e-01-8.756079011551e-09
    1.710785546799e-10 1.000000000000e+00 2.170000000000e+03 0.000000000000e+00
    2.400000000000e+00 0.000000000000e+00-1.769512891769e-08 1.010000000000e+02
    4.464000000000e+05 4.000000000000e+00
21 21  8 13  6  0  0.0 1.369244419038e-04 2.160049916711e-12 0.000000000000e+00
    9.000000000000e+01 4.400000000000e+01 4.538046170695e-09-1.384243822511e-01
    2.315267920494e-06 2.405014762189e-02 9.292736649513e-06 5.153651853561e+03
    4.536000000000e+05-3.762543201447e-07 1.381432987806e+00-3.799796104431e-07
    9.577020708782e-01 2.080937500000e+02-1.099549646325e+00-8.444280309598e-09
    2.303667385565e-10 1.000000000000e+00 2.170000000000e+03 0.000000000000e+00
    2.400000000000e+00 0.000000000000e+00-1.024454832077e-08 9.000000000000e+01
    4.464000000000e+05 4.000000000000e+00
24 21  8 13  6  0  0.0 2.067005261779e-04 1.136868377216e-11 0.000000000000e+00
    5.700000000000e+01 5.468750000000e+01 5.079140138003e-09-2.133624874040e+00
    2.594664692879e-06 1.135760475881e-02 1.064315438271e-05 5.153721683502e+03
    4.536000000000e+05 1.434236764908e-07-1.756940036176e+00-1.173466444016e-07
    9.345893608497e-01 1.575937500000e+02 7.479879029385e-01-8.185698110040e-09
    4.868059917093e-10 1.000000000000e+00 2.170000000000e+03 0.000000000000e+00
    2.400000000000e+00 0.000000000000e+00 2.793967723846e-09 5.700000000000e+01
    4.464000000000e+05 4.000000000000e+00
17 21  8 13  6  0  0.0 4.885783419013e-04 5.798028723802e-12 0.000000000000e+00
    7.400000000000e+01-3.240625000000e+01 4.060526280075e-09-2.366831900049e-01
   -1.659616827965e-06 1.342481723987e-02 1.046434044838e-05 5.153647125244e+03
    4.536000000000e+05-1.285225152969e-07 4.703003041354e-01 5.960464477539e-08
    9.817899913568e-01 1.923125000000e+02-1.561357626161e+00-8.114623720935e-09
   -4.085884479203e-10 1.000000000000e+00 2.170000000000e+03 0.000000000000e+00
    3.400000000000e+00 0.000000000000e+00-1.117587089539e-08 7.400000000000e+01
    4.464000000000e+05 4.000000000000e+00
